"K00469.01" "Sol"
{
    Class "Planet"
    Texture "neptune.jpg"
    Radius 39352.26
    EllipticalOrbit
    {
        Period 10.329066
        SemiMajorAxis 0.096100
        Eccentricity 0.000000
        Inclination 88.110000
    }
}

"K00415.01" "Sol"
{
    Class "Planet"
    Texture "neptune.jpg"
    Radius 44837.34
    EllipticalOrbit
    {
        Period 166.787655
        SemiMajorAxis 0.577800
        Eccentricity 0.000000
        Inclination 89.990000
    }
}

"K04896.02" "Sol"
{
    Class "Planet"
    Texture "neptune.jpg"
    Radius 9439.44
    EllipticalOrbit
    {
        Period 49.537365
        SemiMajorAxis 0.263700
        Eccentricity 0.000000
        Inclination 89.290000
    }
}

"K04838.03" "Sol"
{
    Class "Planet"
    Texture "neptune.jpg"
    Radius 7015.80
    EllipticalOrbit
    {
        Period 24.072165
        SemiMajorAxis 0.140900
        Eccentricity 0.000000
        Inclination 87.430000
    }
}

"K00417.01" "Sol"
{
    Class "Planet"
    Texture "neptune.jpg"
    Radius 78002.94
    EllipticalOrbit
    {
        Period 19.193104
        SemiMajorAxis 0.139600
        Eccentricity 0.000000
        Inclination 88.240000
    }
}

"K05007.02" "Sol"
{
    Class "Planet"
    Texture "neptune.jpg"
    Radius 14478.06
    EllipticalOrbit
    {
        Period 80.881757
        SemiMajorAxis 0.382800
        Eccentricity 0.000000
        Inclination 89.590000
    }
}

"K00080.01" "Sol"
{
    Class "Planet"
    Texture "neptune.jpg"
    Radius 612798.24
    EllipticalOrbit
    {
        Period 9.250573
        SemiMajorAxis 0.109700
        Eccentricity 0.000000
        Inclination 77.530000
    }
}

"K00728.01" "Sol"
{
    Class "Planet"
    Texture "neptune.jpg"
    Radius 76153.32
    EllipticalOrbit
    {
        Period 7.189379
        SemiMajorAxis 0.076800
        Eccentricity 0.000000
        Inclination 86.910000
    }
}

"K07628.01" "Sol"
{
    Class "Planet"
    Texture "neptune.jpg"
    Radius 4400.82
    EllipticalOrbit
    {
        Period 1.813438
        SemiMajorAxis 0.026400
        Eccentricity 0.000000
        Inclination 76.370000
    }
}

"K00682.01" "Sol"
{
    Class "Planet"
    Texture "neptune.jpg"
    Radius 69520.20
    EllipticalOrbit
    {
        Period 562.172591
        SemiMajorAxis 1.345700
        Eccentricity 0.000000
        Inclination 89.950000
    }
}

"K00683.01" "Sol"
{
    Class "Planet"
    Texture "neptune.jpg"
    Radius 37375.08
    EllipticalOrbit
    {
        Period 278.124398
        SemiMajorAxis 0.842300
        Eccentricity 0.000000
        Inclination 89.840000
    }
}

"K00684.01" "Sol"
{
    Class "Planet"
    Texture "neptune.jpg"
    Radius 44327.10
    EllipticalOrbit
    {
        Period 4.034914
        SemiMajorAxis 0.050900
        Eccentricity 0.000000
        Inclination 81.500000
    }
}

"K00686.01" "Sol"
{
    Class "Planet"
    Texture "neptune.jpg"
    Radius 79278.54
    EllipticalOrbit
    {
        Period 52.513549
        SemiMajorAxis 0.267400
        Eccentricity 0.000000
        Inclination 89.640000
    }
}

"K00687.01" "Sol"
{
    Class "Planet"
    Texture "neptune.jpg"
    Radius 19963.14
    EllipticalOrbit
    {
        Period 4.178387
        SemiMajorAxis 0.053000
        Eccentricity 0.000000
        Inclination 87.100000
    }
}

"K07630.01" "Sol"
{
    Class "Planet"
    Texture "neptune.jpg"
    Radius 4974.84
    EllipticalOrbit
    {
        Period 16.298220
        SemiMajorAxis 0.102500
        Eccentricity 0.000000
        Inclination 88.880000
    }
}

"K00099.01" "Sol"
{
    Class "Planet"
    Texture "neptune.jpg"
    Radius 19899.36
    EllipticalOrbit
    {
        Period 2190.701035
        SemiMajorAxis 2.945600
        Eccentricity 0.000000
        Inclination 89.950000
    }
}

"K00732.02" "Sol"
{
    Class "Planet"
    Texture "neptune.jpg"
    Radius 7844.94
    EllipticalOrbit
    {
        Period 3.295346
        SemiMajorAxis 0.044100
        Eccentricity 0.000000
        Inclination 85.510000
    }
}

"K00548.02" "Sol"
{
    Class "Planet"
    Texture "neptune.jpg"
    Radius 5485.08
    EllipticalOrbit
    {
        Period 6.079946
        SemiMajorAxis 0.067600
        Eccentricity 0.000000
        Inclination 89.680000
    }
}

"K00734.02" "Sol"
{
    Class "Planet"
    Texture "neptune.jpg"
    Radius 16200.12
    EllipticalOrbit
    {
        Period 70.278091
        SemiMajorAxis 0.333500
        Eccentricity 0.000000
        Inclination 89.980000
    }
}

"K00100.01" "Sol"
{
    Class "Planet"
    Texture "neptune.jpg"
    Radius 107724.42
    EllipticalOrbit
    {
        Period 9.966400
        SemiMajorAxis 0.106000
        Eccentricity 0.000000
        Inclination 81.230000
    }
}

"K00641.01" "Sol"
{
    Class "Planet"
    Texture "neptune.jpg"
    Radius 17411.94
    EllipticalOrbit
    {
        Period 14.851855
        SemiMajorAxis 0.103600
        Eccentricity 0.000000
        Inclination 87.750000
    }
}

"K07378.02" "Sol"
{
    Class "Planet"
    Texture "neptune.jpg"
    Radius 22833.24
    EllipticalOrbit
    {
        Period 56.391062
        SemiMajorAxis 0.247200
        Eccentricity 0.000000
        Inclination 88.640000
    }
}

"K00735.01" "Sol"
{
    Class "Planet"
    Texture "neptune.jpg"
    Radius 33101.82
    EllipticalOrbit
    {
        Period 22.342135
        SemiMajorAxis 0.136200
        Eccentricity 0.000000
        Inclination 85.190000
    }
}

"K00648.01" "Sol"
{
    Class "Planet"
    Texture "neptune.jpg"
    Radius 98540.10
    EllipticalOrbit
    {
        Period 10.474903
        SemiMajorAxis 0.109000
        Eccentricity 0.000000
        Inclination 43.720000
    }
}

"K04388.02" "Sol"
{
    Class "Planet"
    Texture "neptune.jpg"
    Radius 15753.66
    EllipticalOrbit
    {
        Period 61.858947
        SemiMajorAxis 0.342800
        Eccentricity 0.000000
        Inclination 87.980000
    }
}

"K04577.02" "Sol"
{
    Class "Planet"
    Texture "neptune.jpg"
    Radius 5038.62
    EllipticalOrbit
    {
        Period 3.073651
        SemiMajorAxis 0.040300
        Eccentricity 0.000000
        Inclination 89.830000
    }
}

"K07621.01" "Sol"
{
    Class "Planet"
    Texture "neptune.jpg"
    Radius 11863.08
    EllipticalOrbit
    {
        Period 275.073650
        SemiMajorAxis 0.789100
        Eccentricity 0.000000
        Inclination 89.930000
    }
}

"K04622.02" "Sol"
{
    Class "Planet"
    Texture "neptune.jpg"
    Radius 4655.94
    EllipticalOrbit
    {
        Period 4.501582
        SemiMajorAxis 0.044400
        Eccentricity 0.000000
        Inclination 89.950000
    }
}

"K00605.02" "Sol"
{
    Class "Planet"
    Texture "neptune.jpg"
    Radius 3954.36
    EllipticalOrbit
    {
        Period 5.065469
        SemiMajorAxis 0.048000
        Eccentricity 0.000000
        Inclination 88.250000
    }
}

"K00607.01" "Sol"
{
    Class "Planet"
    Texture "neptune.jpg"
    Radius 71178.48
    EllipticalOrbit
    {
        Period 5.893991
        SemiMajorAxis 0.064100
        Eccentricity 0.000000
        Inclination 87.990000
    }
}

"K04692.02" "Sol"
{
    Class "Planet"
    Texture "neptune.jpg"
    Radius 4592.16
    EllipticalOrbit
    {
        Period 7.672084
        SemiMajorAxis 0.073100
        Eccentricity 0.000000
        Inclination 87.950000
    }
}

"K00611.01" "Sol"
{
    Class "Planet"
    Texture "neptune.jpg"
    Radius 62695.74
    EllipticalOrbit
    {
        Period 3.251659
        SemiMajorAxis 0.044800
        Eccentricity 0.000000
        Inclination 83.920000
    }
}

"K04700.02" "Sol"
{
    Class "Planet"
    Texture "neptune.jpg"
    Radius 11671.74
    EllipticalOrbit
    {
        Period 66.477620
        SemiMajorAxis 0.305200
        Eccentricity 0.000000
        Inclination 89.790000
    }
}

"K00716.01" "Sol"
{
    Class "Planet"
    Texture "neptune.jpg"
    Radius 43242.84
    EllipticalOrbit
    {
        Period 26.893161
        SemiMajorAxis 0.174300
        Eccentricity 0.000000
        Inclination 88.510000
    }
}

"K07636.01" "Sol"
{
    Class "Planet"
    Texture "neptune.jpg"
    Radius 4655.94
    EllipticalOrbit
    {
        Period 0.702740
        SemiMajorAxis 0.014500
        Eccentricity 0.000000
        Inclination 74.580000
    }
}

"K00621.01" "Sol"
{
    Class "Planet"
    Texture "neptune.jpg"
    Radius 90886.50
    EllipticalOrbit
    {
        Period 17.761998
        SemiMajorAxis 0.116500
        Eccentricity 0.000000
        Inclination 88.790000
    }
}

"K00622.01" "Sol"
{
    Class "Planet"
    Texture "neptune.jpg"
    Radius 168634.32
    EllipticalOrbit
    {
        Period 155.042265
        SemiMajorAxis 0.616700
        Eccentricity 0.000000
        Inclination 89.430000
    }
}

"K07638.01" "Sol"
{
    Class "Planet"
    Texture "neptune.jpg"
    Radius 9375.66
    EllipticalOrbit
    {
        Period 25.003202
        SemiMajorAxis 0.176700
        Eccentricity 0.000000
        Inclination 88.130000
    }
}

"K07634.01" "Sol"
{
    Class "Planet"
    Texture "neptune.jpg"
    Radius 96371.58
    EllipticalOrbit
    {
        Period 80.840690
        SemiMajorAxis 0.376800
        Eccentricity 0.000000
        Inclination 90.000000
    }
}

"K07635.01" "Sol"
{
    Class "Planet"
    Texture "neptune.jpg"
    Radius 10141.02
    EllipticalOrbit
    {
        Period 60.458443
        SemiMajorAxis 0.302500
        Eccentricity 0.000000
        Inclination 89.480000
    }
}

"K00626.02" "Sol"
{
    Class "Planet"
    Texture "neptune.jpg"
    Radius 6314.22
    EllipticalOrbit
    {
        Period 8.029202
        SemiMajorAxis 0.078800
        Eccentricity 0.000000
        Inclination 88.100000
    }
}

"K04136.01" "Sol"
{
    Class "Planet"
    Texture "neptune.jpg"
    Radius 7589.82
    EllipticalOrbit
    {
        Period 2.417500
        SemiMajorAxis 0.034800
        Eccentricity 0.000000
        Inclination 65.870000
    }
}

